STARLINK-33786
1 63514U 25071X   26079.71386646  .00020784  00000+0  71158-3 0  9994
2 63514  53.1568  88.9636 0000910  75.5436 284.5666 15.30214065 54079
STARLINK-33796
1 63515U 25071Y   26079.73591469  .00017020  00000+0  58528-3 0  9993
2 63515  53.1596  88.3918 0001197  69.4272 290.6858 15.30209723 54465
STARLINK-33785
1 63516U 25071Z   26079.51475526  .00012507  00000+0  43361-3 0  9999
2 63516  53.1584  89.8558 0001054  82.2301 277.8819 15.30206341 54408
STARLINK-33803
1 63517U 25071AA  26079.74330221  .00016147  00000+0  55591-3 0  9999
2 63517  53.1598  88.4308 0001640  93.1271 266.9917 15.30210595 54460
STARLINK-33807
1 63518U 25071AB  26079.75966042  .00017418  00000+0  59867-3 0  9999
2 63518  53.1604  90.6730 0001351  92.5575 267.5581 15.30208498 54432
STARLINK-33787
1 63519U 25071AC  26079.30775649  .00023027  00000+0  78720-3 0  9994
2 63519  53.1585  92.8320 0001660  79.9126 280.2062 15.30199312 53994
STARLINK-11669 [DTC]
1 63548U 25075A   26079.24569980  .00177000  00000+0  13552-2 0  9994
2 63548  43.0007  89.7421 0001672 264.5918  95.4759 15.70813436 54910
STARLINK-11665 [DTC]
1 63549U 25075B   26079.90807460  .00213914  00000+0  16242-2 0  9990
2 63549  42.9971  86.1211 0000708 279.0534  81.0254 15.70895799 55016
STARLINK-11667 [DTC]
1 63550U 25075C   26079.42064993  .00241051  00000+0  18123-2 0  9998
2 63550  42.9997  89.3591 0002219 267.7109  92.3504 15.71047100 54932
STARLINK-11695 [DTC]
1 63551U 25075D   26079.50094716  .00181579  00000+0  13830-2 0  9992
2 63551  42.9989  88.2155 0001131 238.6736 121.4021 15.70923683 54951
STARLINK-11685 [DTC]
1 63552U 25075E   26079.38348223  .00143162  00000+0  10984-2 0  9997
2 63552  43.0019  89.0582 0002026 273.3407  86.7229 15.70876779 54930
STARLINK-11697 [DTC]
1 63553U 25075F   26079.70671420  .00216800  00000+0  16460-2 0  9997
2 63553  43.0001  87.1836 0000902   3.4550 356.6323 15.70889155 54986
STARLINK-11680 [DTC]
1 63554U 25075G   26079.73325883  .00141231  00000+0  10838-2 0  9998
2 63554  42.9992  87.3969 0000236 359.7803   0.3065 15.70878797 54987
STARLINK-11687 [DTC]
1 63555U 25075H   26079.91668981  .00432593  84216-4  96913-3 0  9997
2 63555  42.9885  82.0132 0010507 134.1918  84.1902 15.96841779  5824
STARLINK-11626 [DTC]
1 63556U 25075J   26079.43126448  .00143826  00000+0  11030-2 0  9990
2 63556  43.0008  89.4404 0002397 267.0101  93.0492 15.70884069 54935
STARLINK-11668 [DTC]
1 63557U 25075K   26079.74388830  .00208003  00000+0  15810-2 0  9999
2 63557  42.9967  87.4824 0002278  78.9985 281.1139 15.70889148 54985
