[{"OBJECT_NAME":"STARLINK-33786","OBJECT_ID":"2025-071X","EPOCH":"2026-03-20T17:07:58.062144","MEAN_MOTION":15.30214065,"ECCENTRICITY":9.1e-5,"INCLINATION":53.1568,"RA_OF_ASC_NODE":88.9636,"ARG_OF_PERICENTER":75.5436,"MEAN_ANOMALY":284.5666,"EPHEMERIS_TYPE":0,"CLASSIFICATION_TYPE":"U","NORAD_CAT_ID":63514,"ELEMENT_SET_NO":999,"REV_AT_EPOCH":5407,"BSTAR":0.00071158,"MEAN_MOTION_DOT":0.00020784,"MEAN_MOTION_DDOT":0},{"OBJECT_NAME":"STARLINK-33796","OBJECT_ID":"2025-071Y","EPOCH":"2026-03-20T17:39:43.029216","MEAN_MOTION":15.30209723,"ECCENTRICITY":0.00011974,"INCLINATION":53.1596,"RA_OF_ASC_NODE":88.3918,"ARG_OF_PERICENTER":69.4272,"MEAN_ANOMALY":290.6858,"EPHEMERIS_TYPE":0,"CLASSIFICATION_TYPE":"U","NORAD_CAT_ID":63515,"ELEMENT_SET_NO":999,"REV_AT_EPOCH":5446,"BSTAR":0.0005852778,"MEAN_MOTION_DOT":0.0001702,"MEAN_MOTION_DDOT":0},{"OBJECT_NAME":"STARLINK-33785","OBJECT_ID":"2025-071Z","EPOCH":"2026-03-20T12:21:14.854464","MEAN_MOTION":15.30206341,"ECCENTRICITY":0.0001054,"INCLINATION":53.1584,"RA_OF_ASC_NODE":89.8558,"ARG_OF_PERICENTER":82.2301,"MEAN_ANOMALY":277.8819,"EPHEMERIS_TYPE":0,"CLASSIFICATION_TYPE":"U","NORAD_CAT_ID":63516,"ELEMENT_SET_NO":999,"REV_AT_EPOCH":5440,"BSTAR":0.00043361,"MEAN_MOTION_DOT":0.00012507,"MEAN_MOTION_DDOT":0},{"OBJECT_NAME":"STARLINK-33803","OBJECT_ID":"2025-071AA","EPOCH":"2026-03-20T17:50:21.310944","MEAN_MOTION":15.30210595,"ECCENTRICITY":0.00016404,"INCLINATION":53.1598,"RA_OF_ASC_NODE":88.4308,"ARG_OF_PERICENTER":93.1271,"MEAN_ANOMALY":266.9917,"EPHEMERIS_TYPE":0,"CLASSIFICATION_TYPE":"U","NORAD_CAT_ID":63517,"ELEMENT_SET_NO":999,"REV_AT_EPOCH":5446,"BSTAR":0.00055591463,"MEAN_MOTION_DOT":0.00016147,"MEAN_MOTION_DDOT":0},{"OBJECT_NAME":"STARLINK-33807","OBJECT_ID":"2025-071AB","EPOCH":"2026-03-20T18:13:54.660288","MEAN_MOTION":15.30208498,"ECCENTRICITY":0.00013514,"INCLINATION":53.1604,"RA_OF_ASC_NODE":90.673,"ARG_OF_PERICENTER":92.5575,"MEAN_ANOMALY":267.5581,"EPHEMERIS_TYPE":0,"CLASSIFICATION_TYPE":"U","NORAD_CAT_ID":63518,"ELEMENT_SET_NO":999,"REV_AT_EPOCH":5443,"BSTAR":0.00059866744,"MEAN_MOTION_DOT":0.00017418,"MEAN_MOTION_DDOT":0},{"OBJECT_NAME":"STARLINK-33787","OBJECT_ID":"2025-071AC","EPOCH":"2026-03-20T07:23:10.160736","MEAN_MOTION":15.30199312,"ECCENTRICITY":0.000166,"INCLINATION":53.1585,"RA_OF_ASC_NODE":92.832,"ARG_OF_PERICENTER":79.9126,"MEAN_ANOMALY":280.2062,"EPHEMERIS_TYPE":0,"CLASSIFICATION_TYPE":"U","NORAD_CAT_ID":63519,"ELEMENT_SET_NO":999,"REV_AT_EPOCH":5399,"BSTAR":0.0007872,"MEAN_MOTION_DOT":0.00023027,"MEAN_MOTION_DDOT":0},{"OBJECT_NAME":"STARLINK-11669 [DTC]","OBJECT_ID":"2025-075A","EPOCH":"2026-03-20T05:53:48.462720","MEAN_MOTION":15.70813436,"ECCENTRICITY":0.0001672,"INCLINATION":43.0007,"RA_OF_ASC_NODE":89.7421,"ARG_OF_PERICENTER":264.5918,"MEAN_ANOMALY":95.4759,"EPHEMERIS_TYPE":0,"CLASSIFICATION_TYPE":"U","NORAD_CAT_ID":63548,"ELEMENT_SET_NO":999,"REV_AT_EPOCH":5491,"BSTAR":0.0013552,"MEAN_MOTION_DOT":0.00177,"MEAN_MOTION_DDOT":0},{"OBJECT_NAME":"STARLINK-11665 [DTC]","OBJECT_ID":"2025-075B","EPOCH":"2026-03-20T21:47:37.645440","MEAN_MOTION":15.70895799,"ECCENTRICITY":7.087e-5,"INCLINATION":42.9971,"RA_OF_ASC_NODE":86.1211,"ARG_OF_PERICENTER":279.0534,"MEAN_ANOMALY":81.0254,"EPHEMERIS_TYPE":0,"CLASSIFICATION_TYPE":"U","NORAD_CAT_ID":63549,"ELEMENT_SET_NO":999,"REV_AT_EPOCH":5501,"BSTAR":0.0016242093,"MEAN_MOTION_DOT":0.00213914,"MEAN_MOTION_DDOT":0},{"OBJECT_NAME":"STARLINK-11667 [DTC]","OBJECT_ID":"2025-075C","EPOCH":"2026-03-20T10:05:44.153952","MEAN_MOTION":15.710471,"ECCENTRICITY":0.00022194,"INCLINATION":42.9997,"RA_OF_ASC_NODE":89.3591,"ARG_OF_PERICENTER":267.7109,"MEAN_ANOMALY":92.3504,"EPHEMERIS_TYPE":0,"CLASSIFICATION_TYPE":"U","NORAD_CAT_ID":63550,"ELEMENT_SET_NO":999,"REV_AT_EPOCH":5493,"BSTAR":0.0018122553,"MEAN_MOTION_DOT":0.00241051,"MEAN_MOTION_DDOT":0},{"OBJECT_NAME":"STARLINK-11695 [DTC]","OBJECT_ID":"2025-075D","EPOCH":"2026-03-20T12:01:21.834624","MEAN_MOTION":15.70923683,"ECCENTRICITY":0.00011319,"INCLINATION":42.9989,"RA_OF_ASC_NODE":88.2155,"ARG_OF_PERICENTER":238.6736,"MEAN_ANOMALY":121.4021,"EPHEMERIS_TYPE":0,"CLASSIFICATION_TYPE":"U","NORAD_CAT_ID":63551,"ELEMENT_SET_NO":999,"REV_AT_EPOCH":5495,"BSTAR":0.0013830278,"MEAN_MOTION_DOT":0.00181579,"MEAN_MOTION_DDOT":0},{"OBJECT_NAME":"STARLINK-11685 [DTC]","OBJECT_ID":"2025-075E","EPOCH":"2026-03-20T09:12:12.864672","MEAN_MOTION":15.70876779,"ECCENTRICITY":0.0002026,"INCLINATION":43.0019,"RA_OF_ASC_NODE":89.0582,"ARG_OF_PERICENTER":273.3407,"MEAN_ANOMALY":86.7229,"EPHEMERIS_TYPE":0,"CLASSIFICATION_TYPE":"U","NORAD_CAT_ID":63552,"ELEMENT_SET_NO":999,"REV_AT_EPOCH":5493,"BSTAR":0.0010983548,"MEAN_MOTION_DOT":0.00143162,"MEAN_MOTION_DDOT":0},{"OBJECT_NAME":"STARLINK-11697 [DTC]","OBJECT_ID":"2025-075F","EPOCH":"2026-03-20T16:57:40.106880","MEAN_MOTION":15.70889155,"ECCENTRICITY":9.023e-5,"INCLINATION":43.0001,"RA_OF_ASC_NODE":87.1836,"ARG_OF_PERICENTER":3.455,"MEAN_ANOMALY":356.6323,"EPHEMERIS_TYPE":0,"CLASSIFICATION_TYPE":"U","NORAD_CAT_ID":63553,"ELEMENT_SET_NO":999,"REV_AT_EPOCH":5498,"BSTAR":0.0016459736,"MEAN_MOTION_DOT":0.002168,"MEAN_MOTION_DDOT":0},{"OBJECT_NAME":"STARLINK-11680 [DTC]","OBJECT_ID":"2025-075G","EPOCH":"2026-03-20T17:35:53.562912","MEAN_MOTION":15.70878797,"ECCENTRICITY":2.367e-5,"INCLINATION":42.9992,"RA_OF_ASC_NODE":87.3969,"ARG_OF_PERICENTER":359.7803,"MEAN_ANOMALY":0.3065,"EPHEMERIS_TYPE":0,"CLASSIFICATION_TYPE":"U","NORAD_CAT_ID":63554,"ELEMENT_SET_NO":999,"REV_AT_EPOCH":5498,"BSTAR":0.0010837674,"MEAN_MOTION_DOT":0.00141231,"MEAN_MOTION_DDOT":0},{"OBJECT_NAME":"STARLINK-11687 [DTC]","OBJECT_ID":"2025-075H","EPOCH":"2026-03-20T22:00:01.999584","MEAN_MOTION":15.96841779,"ECCENTRICITY":0.00105079,"INCLINATION":42.9885,"RA_OF_ASC_NODE":82.0132,"ARG_OF_PERICENTER":134.1918,"MEAN_ANOMALY":84.1902,"EPHEMERIS_TYPE":0,"CLASSIFICATION_TYPE":"U","NORAD_CAT_ID":63555,"ELEMENT_SET_NO":999,"REV_AT_EPOCH":582,"BSTAR":0.00096913303,"MEAN_MOTION_DOT":0.00432593,"MEAN_MOTION_DDOT":8.4215794e-5},{"OBJECT_NAME":"STARLINK-11626 [DTC]","OBJECT_ID":"2025-075J","EPOCH":"2026-03-20T10:21:01.251072","MEAN_MOTION":15.70884069,"ECCENTRICITY":0.00023974,"INCLINATION":43.0008,"RA_OF_ASC_NODE":89.4404,"ARG_OF_PERICENTER":267.0101,"MEAN_ANOMALY":93.0492,"EPHEMERIS_TYPE":0,"CLASSIFICATION_TYPE":"U","NORAD_CAT_ID":63556,"ELEMENT_SET_NO":999,"REV_AT_EPOCH":5493,"BSTAR":0.0011029756,"MEAN_MOTION_DOT":0.00143826,"MEAN_MOTION_DDOT":0},{"OBJECT_NAME":"STARLINK-11668 [DTC]","OBJECT_ID":"2025-075K","EPOCH":"2026-03-20T17:51:11.949120","MEAN_MOTION":15.70889148,"ECCENTRICITY":0.00022787,"INCLINATION":42.9967,"RA_OF_ASC_NODE":87.4824,"ARG_OF_PERICENTER":78.9985,"MEAN_ANOMALY":281.1139,"EPHEMERIS_TYPE":0,"CLASSIFICATION_TYPE":"U","NORAD_CAT_ID":63557,"ELEMENT_SET_NO":999,"REV_AT_EPOCH":5498,"BSTAR":0.0015809626,"MEAN_MOTION_DOT":0.00208003,"MEAN_MOTION_DDOT":0}]
